ONEWEB-0331             
1 49198U 21083N   25342.84905948  .00000033  00000+0  51114-4 0  9999
2 49198  87.9182  13.2500 0001569 105.4556 254.6750 13.18685513204923
ONEWEB-0333             
1 49199U 21083P   25342.77235572 -.00000297  00000+0 -84793-3 0  9993
2 49199  87.8971 358.1016 0001808  93.1381 266.9955 13.13470607205911
ONEWEB-0334             
1 49200U 21083Q   25342.91723981 -.00000022  00000+0 -85327-4 0  9999
2 49200  87.9190 312.4065 0002717  72.1859 287.9570 13.20771521211675
ONEWEB-0335             
1 49201U 21083R   25342.76727415 -.00000238  00000+0 -68668-3 0  9996
2 49201  87.8968 358.0911 0001674  98.3074 261.8245 13.13470853205921
ONEWEB-0336             
1 49202U 21083S   25342.96703237  .00000337  00000+0  88684-3 0  9993
2 49202  87.8974 358.0474 0001468 103.9091 256.2201 13.13470621205941
ONEWEB-0337             
1 49203U 21083T   25342.97704793  .00000117  00000+0  28577-3 0  9994
2 49203  87.8974 358.0565 0001523  92.3913 267.7391 13.13470429205942
ONEWEB-0338             
1 49204U 21083U   25342.96774683 -.00000081  00000+0 -23091-3 0  9997
2 49204  87.9195 312.3992 0002031  77.9156 282.2205 13.20772149211708
ONEWEB-0339             
1 49205U 21083V   25342.98565127 -.00000130  00000+0 -39032-3 0  9998
2 49205  87.8978 358.0371 0001728  86.8678 273.2649 13.13470338205921
